[{"OBJECT_NAME":"DONGPO 08","OBJECT_ID":"2022-167E","EPOCH":"2026-03-09T22:57:52.742880","MEAN_MOTION":15.31542505,"ECCENTRICITY":0.00092155,"INCLINATION":97.6764,"RA_OF_ASC_NODE":233.3854,"ARG_OF_PERICENTER":153.9158,"MEAN_ANOMALY":206.2548,"EPHEMERIS_TYPE":0,"CLASSIFICATION_TYPE":"U","NORAD_CAT_ID":54686,"ELEMENT_SET_NO":999,"REV_AT_EPOCH":18012,"BSTAR":0.0004734784,"MEAN_MOTION_DOT":0.0001437,"MEAN_MOTION_DDOT":0},{"OBJECT_NAME":"STARLINK-33884","OBJECT_ID":"2025-089V","EPOCH":"2026-03-09T23:21:20.108160","MEAN_MOTION":15.27587563,"ECCENTRICITY":6.035e-5,"INCLINATION":42.9994,"RA_OF_ASC_NODE":43.3934,"ARG_OF_PERICENTER":151.181,"MEAN_ANOMALY":208.9075,"EPHEMERIS_TYPE":0,"CLASSIFICATION_TYPE":"U","NORAD_CAT_ID":63770,"ELEMENT_SET_NO":999,"REV_AT_EPOCH":4895,"BSTAR":0.00083226801,"MEAN_MOTION_DOT":0.00022716,"MEAN_MOTION_DDOT":0}]
